NORAD_CAT_ID,OBJECT_NAME,OBJECT_TYPE,EPOCH,MEAN_MOTION,ECCENTRICITY,INCLINATION,RA_OF_ASC_NODE,ARG_OF_PERICENTER,MEAN_ANOMALY,BSTAR,MEAN_MOTION_DOT,MEAN_MOTION_DDOT,TLE_LINE0,TLE_LINE1,TLE_LINE2,SEMIMAJOR_AXIS,PERIOD,APOGEE,PERIGEE,DECAYED
52544.0,STARLINK-3944,PAYLOAD,2023-01-25 07:35:02,15.08823905,0.0003323,53.2142,208.9742,24.7189,335.3961,-0.00016901,-2.977e-05,0.0,0 STARLINK-3944,1 52544U 22051M   23025.31600673 -.00002977  00000-0 -16901-3 0  9995,2 52544  53.2142 208.9742 0003323  24.7189 335.3961 15.08823905 39365,6917.93,95.439,542.0930000000001,537.496,0.0
52544.0,STARLINK-3944,PAYLOAD,2023-01-25 15:31:58,15.08829801,0.0002924,53.2144,207.4869,22.5387,337.5733,5.0795e-05,5.2e-06,0.0,0 STARLINK-3944,1 52544U 22051M   23025.64720405  .00000520  00000-0  50795-4 0  9997,2 52544  53.2144 207.4869 0002924  22.5387 337.5733 15.08829801 39488,6917.911999999999,95.438,541.799,537.754,0.0
52544.0,STARLINK-3944,PAYLOAD,2023-01-25 17:07:21,15.08835857,0.0003028,53.2143,207.1895,22.4967,337.6157,0.00015176,2.127e-05,0.0,0 STARLINK-3944,1 52544U 22051M   23025.71344233  .00002127  00000-0  15176-3 0  9994,2 52544  53.2143 207.1895 0003028  22.4967 337.6157 15.08835857 39425,6917.893,95.438,541.8530000000001,537.663,0.0
52544.0,STARLINK-3944,PAYLOAD,2023-01-25 21:53:30,15.08844685,0.0003041,53.2143,206.2965,23.3709,336.7421,0.00032887,4.95e-05,0.0,0 STARLINK-3944,1 52544U 22051M   23025.91216014  .00004950  00000-0  32887-3 0  9995,2 52544  53.2143 206.2965 0003041  23.3709 336.7421 15.08844685 39526,6917.866,95.437,541.835,537.627,0.0
52544.0,STARLINK-3944,PAYLOAD,2023-01-26 10:36:35,15.08851837,0.0003055,53.2147,203.9178,24.0339,336.0795,0.00047388,7.264e-05,0.0,0 STARLINK-3944,1 52544U 22051M   23026.44207685  .00007264  00000-0  47388-3 0  9991,2 52544  53.2147 203.9178 0003055  24.0339 336.0795 15.08851837 39537,6917.844,95.437,541.823,537.596,0.0
52544.0,STARLINK-3944,PAYLOAD,2023-01-27 04:05:49,15.0884878,0.0003165,53.2152,200.6467,21.8577,338.255,0.00023563,3.465e-05,0.0,0 STARLINK-3944,1 52544U 22051M   23027.17071537  .00003465  00000-0  23563-3 0  9995,2 52544  53.2152 200.6467 0003165  21.8577 338.2550 15.08848780 39715,6917.854,95.437,541.908,537.529,0.0
52544.0,STARLINK-3944,PAYLOAD,2023-01-27 13:38:08,15.08837567,0.000307,53.2147,198.8623,22.7497,337.3631,-4.6314e-05,-1.026e-05,0.0,0 STARLINK-3944,1 52544U 22051M   23027.56815869 -.00001026  00000-0 -46314-4 0  9995,2 52544  53.2147 198.8623 0003070  22.7497 337.3631 15.08837567 39774,6917.888000000001,95.438,541.877,537.629,0.0
52544.0,STARLINK-3944,PAYLOAD,2023-01-27 18:24:17,15.08860424,0.000391,53.215,197.971,18.2604,341.8528,0.00030822,4.623e-05,0.0,0 STARLINK-3944,1 52544U 22051M   23027.76686962  .00004623  00000-0  30822-3 0  9997,2 52544  53.2150 197.9710 0003910  18.2604 341.8528 15.08860424 39805,6917.818,95.436,542.388,536.9780000000001,0.0
52544.0,STARLINK-3944,PAYLOAD,2023-01-28 03:56:36,15.08846889,0.0003191,53.2152,196.1872,20.2151,339.8967,3.3337e-05,2.42e-06,0.0,0 STARLINK-3944,1 52544U 22051M   23028.16431270  .00000242  00000-0  33337-4 0  9990,2 52544  53.2152 196.1872 0003191  20.2151 339.8967 15.08846889 39867,6917.859,95.437,541.932,537.5169999999999,0.0
52544.0,STARLINK-3944,PAYLOAD,2023-01-28 11:53:32,15.08849321,0.0003302,53.215,194.6992,20.9216,339.191,0.00016997,2.418e-05,0.0,0 STARLINK-3944,1 52544U 22051M   23028.49550990  .00002418  00000-0  16997-3 0  9996,2 52544  53.2150 194.6992 0003302  20.9216 339.1910 15.08849321 39847,6917.852,95.437,542.001,537.433,0.0
52544.0,STARLINK-3944,PAYLOAD,2023-01-28 19:50:28,15.08840352,0.0003075,53.2152,193.213,22.3766,337.7359,3.3866e-06,-2.35e-06,0.0,0 STARLINK-3944,1 52544U 22051M   23028.82671324 -.00000235  00000-0  33866-5 0  9990,2 52544  53.2152 193.2130 0003075  22.3766 337.7359 15.08840352 39892,6917.879,95.438,541.872,537.617,0.0
52544.0,STARLINK-3944,PAYLOAD,2023-01-29 05:22:46,15.08842896,0.000329,53.215,191.4286,20.751,339.3615,0.00015988,2.257e-05,0.0,0 STARLINK-3944,1 52544U 22051M   23029.22415196  .00002257  00000-0  15988-3 0  9996,2 52544  53.2150 191.4286 0003290  20.7510 339.3615 15.08842896 40025,6917.872,95.437,542.013,537.461,0.0
52544.0,STARLINK-3944,PAYLOAD,2023-01-29 19:41:14,15.08847766,0.0003546,53.2144,188.7544,19.63,340.4828,0.00024568,3.625e-05,0.0,0 STARLINK-3944,1 52544U 22051M   23029.82030842  .00003625  00000-0  24568-3 0  9997,2 52544  53.2144 188.7544 0003546  19.6300 340.4828 15.08847766 40044,6917.857,95.437,542.175,537.269,0.0
52544.0,STARLINK-3944,PAYLOAD,2023-01-30 06:48:56,15.08846222,0.0003397,53.2147,186.6718,21.5429,338.5706,4.5372e-05,4.34e-06,0.0,0 STARLINK-3944,1 52544U 22051M   23030.28398662  .00000434  00000-0  45372-4 0  9998,2 52544  53.2147 186.6718 0003397  21.5429 338.5706 15.08846222 40189,6917.861,95.437,542.076,537.376,0.0
52544.0,STARLINK-3944,PAYLOAD,2023-01-30 13:10:29,15.08844891,0.00033,53.2148,185.4808,21.3999,338.7131,0.00013444,1.852e-05,0.0,0 STARLINK-3944,1 52544U 22051M   23030.54894701  .00001852  00000-0  13444-3 0  9991,2 52544  53.2148 185.4808 0003300  21.3999 338.7131 15.08844891 40152,6917.865,95.437,542.013,537.448,0.0
52544.0,STARLINK-3944,PAYLOAD,2023-01-31 05:04:20,15.08841395,0.0003402,53.2149,182.5076,21.0419,339.0712,5.4349e-05,5.76e-06,0.0,0 STARLINK-3944,1 52544U 22051M   23031.21134893  .00000576  00000-0  54349-4 0  9997,2 52544  53.2149 182.5076 0003402  21.0419 339.0712 15.08841395 40329,6917.876,95.437,542.095,537.388,0.0
52544.0,STARLINK-3944,PAYLOAD,2023-01-31 13:01:15,15.08853742,0.0003461,53.2148,181.0207,22.4526,337.6617,0.00021214,3.091e-05,0.0,0 STARLINK-3944,1 52544U 22051M   23031.54254300  .00003091  00000-0  21214-3 0  9998,2 52544  53.2148 181.0207 0003461  22.4526 337.6617 15.08853742 40379,6917.838,95.437,542.098,537.309,0.0
52544.0,STARLINK-3944,PAYLOAD,2023-01-31 19:22:48,15.08848622,0.0003514,53.2145,179.8317,22.1218,337.9925,0.00020122,2.916e-05,0.0,0 STARLINK-3944,1 52544U 22051M   23031.80750504  .00002916  00000-0  20122-3 0  9996,2 52544  53.2145 179.8317 0003514  22.1218 337.9925 15.08848622 40340,6917.854,95.437,542.15,537.288,0.0
52544.0,STARLINK-3944,PAYLOAD,2023-02-01 04:55:07,15.08850791,0.0003555,53.2146,178.0473,22.106,338.0084,0.00028553,4.26e-05,0.0,0 STARLINK-3944,1 52544U 22051M   23032.20494383  .00004260  00000-0  28553-3 0  9991,2 52544  53.2146 178.0473 0003555  22.1060 338.0084 15.08850791 40477,6917.847,95.437,542.172,537.253,0.0
52544.0,STARLINK-3944,PAYLOAD,2023-02-01 12:52:02,15.08845809,0.0003369,53.2139,176.5594,20.8746,339.2383,0.00024906,3.678e-05,0.0,0 STARLINK-3944,1 52544U 22051M   23032.53614057  .00003678  00000-0  24906-3 0  9999,2 52544  53.2139 176.5594 0003369  20.8746 339.2383 15.08845809 40452,6917.863,95.437,542.058,537.397,0.0
52544.0,STARLINK-3944,PAYLOAD,2023-02-02 12:42:49,15.08838045,0.0003894,53.2152,172.1003,19.1962,340.9176,-5.9601e-05,-1.238e-05,0.0,0 STARLINK-3944,1 52544U 22051M   23033.52974449 -.00001238  00000-0 -59601-4 0  9996,2 52544  53.2152 172.1003 0003894  19.1962 340.9176 15.08838045 40608,6917.886,95.438,542.445,537.058,0.0
52544.0,STARLINK-3944,PAYLOAD,2023-02-03 12:33:36,15.08841612,0.000347,53.215,167.6391,21.0063,339.1071,-2.925e-05,-7.54e-06,0.0,0 STARLINK-3944,1 52544U 22051M   23034.52334035 -.00000754  00000-0 -29250-4 0  9997,2 52544  53.2150 167.6391 0003470  21.0063 339.1071 15.08841612 40753,6917.875,95.437,542.141,537.34,0.0
52544.0,STARLINK-3944,PAYLOAD,2023-02-04 13:59:47,15.0883554,0.0003464,53.2162,162.8821,19.8462,340.2664,4.5241e-05,4.31e-06,0.0,0 STARLINK-3944,1 52544U 22051M   23035.58318784  .00000431  00000-0  45241-4 0  9995,2 52544  53.2162 162.8821 0003464  19.8462 340.2664 15.08835540 40981,6917.894,95.438,542.155,537.363,0.0
52544.0,STARLINK-3944,PAYLOAD,2023-02-04 15:35:10,15.08838061,0.0003396,53.2162,162.5846,20.4274,339.6853,5.5817e-05,6e-06,0.0,0 STARLINK-3944,1 52544U 22051M   23035.64942577  .00000600  00000-0  55817-4 0  9993,2 52544  53.2162 162.5846 0003396  20.4274 339.6853 15.08838061 40925,6917.886,95.438,542.101,537.402,0.0
52544.0,STARLINK-3944,PAYLOAD,2023-02-05 04:18:15,15.08841394,0.00037,53.2156,160.2061,17.7658,342.3463,0.00016995,2.417e-05,0.0,0 STARLINK-3944,1 52544U 22051M   23036.17934251  .00002417  00000-0  16995-3 0  9993,2 52544  53.2156 160.2061 0003700  17.7658 342.3463 15.08841394 41074,6917.876,95.437,542.301,537.182,0.0
52544.0,STARLINK-3944,PAYLOAD,2023-02-05 13:50:34,15.08836189,0.0003895,53.2157,158.4214,16.5602,343.5516,7.5101e-05,9.06e-06,0.0,0 STARLINK-3944,1 52544U 22051M   23036.57678629  .00000906  00000-0  75101-4 0  9997,2 52544  53.2157 158.4214 0003895  16.5602 343.5516 15.08836189 41062,6917.892,95.438,542.452,537.063,0.0
52544.0,STARLINK-3944,PAYLOAD,2023-02-05 17:01:20,15.08832309,0.0003767,53.2157,157.8264,17.404,342.708,4.9316e-06,-2.11e-06,0.0,0 STARLINK-3944,1 52544U 22051M   23036.70926844 -.00000211  00000-0  49316-5 0  9997,2 52544  53.2157 157.8264 0003767  17.4040 342.7080 15.08832309 41151,6917.904,95.438,542.375,537.163,0.0
52544.0,STARLINK-3944,PAYLOAD,2023-02-06 13:41:21,15.08837579,0.0003674,53.2156,153.9608,16.4266,343.6844,0.00015297,2.147e-05,0.0,0 STARLINK-3944,1 52544U 22051M   23037.57039007  .00002147  00000-0  15297-3 0  9997,2 52544  53.2156 153.9608 0003674  16.4266 343.6844 15.08837579 41214,6917.888,95.438,542.294,537.211,0.0
52544.0,STARLINK-3944,PAYLOAD,2023-02-06 15:16:44,15.08839638,0.0003732,53.2156,153.6636,15.6886,344.4221,0.00018052,2.586e-05,0.0,0 STARLINK-3944,1 52544U 22051M   23037.63662963  .00002586  00000-0  18052-3 0  9996,2 52544  53.2156 153.6636 0003732  15.6886 344.4221 15.08839638 41223,6917.881,95.438,542.328,537.165,0.0
52544.0,STARLINK-3944,PAYLOAD,2023-02-07 07:10:35,15.08858882,0.0003815,53.2151,150.6897,14.1507,345.9592,0.00048606,7.46e-05,0.0,0 STARLINK-3944,1 52544U 22051M   23038.29902008  .00007460  00000-0  48606-3 0  9990,2 52544  53.2151 150.6897 0003815  14.1507 345.9592 15.08858882 41397,6917.823,95.436,542.327,537.049,0.0
